EXO-0                   
1 59175U 23174DK  26068.71046781  .00011582  00000+0  36716-3 0  9992
2 59175  97.3864 148.9039 0009878 157.1125 203.0559 15.32821991129797
STARLINK-32748          
1 62524U 25004P   26068.44755735  .00024428  00000+0  89374-3 0  9995
2 62524  43.0027 221.0601 0002873 281.0047  79.0481 15.27597298 66423
